{
  "type": "FeatureCollection",
  "features": [
    {
      "type": "Feature",
      "properties": {
        "norad_id": 39773,
        "name": "EUTELSAT 3B",
        "group": "eutelsat",
        "lat": -0.004543748690956138,
        "lon": -9.09497106383853,
        "alt_km": 35794.285927575555,
        "timestamp": "2025-12-25T16:53:14.325597+00:00",
        "meta_object_name": "EUTELSAT 3B",
        "meta_object_id": "2014-030A",
        "meta_epoch": "2025-12-25T06:13:55.124256",
        "meta_mean_motion": 1.00270181,
        "meta_eccentricity": 0.00042607,
        "meta_inclination": 0.0607,
        "meta_ra_of_asc_node": 349.849,
        "meta_arg_of_pericenter": 245.1418,
        "meta_mean_anomaly": 315.612,
        "meta_ephemeris_type": 0,
        "meta_classification_type": "U",
        "meta_norad_cat_id": 39773,
        "meta_element_set_no": 999,
        "meta_rev_at_epoch": 4232,
        "meta_bstar": 0,
        "meta_mean_motion_dot": 4.1e-07,
        "meta_mean_motion_ddot": 0,
        "tle_line1": "1 39773U 14030A   25359.25966579  .00000041  00000+0  00000+0 0  9993",
        "tle_line2": "2 39773   0.0607 349.8490 0004260 245.1418 315.6120  1.00270181 42327"
      },
      "geometry": {
        "type": "Point",
        "coordinates": [
          -9.09497106383853,
          -0.004543748690956138
        ]
      }
    },
    {
      "type": "Feature",
      "properties": {
        "norad_id": 40425,
        "name": "EUTELSAT 115 WEST B",
        "group": "eutelsat",
        "lat": 0.02056879722338153,
        "lon": -127.14928899284581,
        "alt_km": 35786.63189361678,
        "timestamp": "2025-12-25T16:53:14.325610+00:00",
        "meta_object_name": "EUTELSAT 115 WEST B",
        "meta_object_id": "2015-010B",
        "meta_epoch": "2025-12-24T09:59:58.343136",
        "meta_mean_motion": 1.00271259,
        "meta_eccentricity": 1.435e-05,
        "meta_inclination": 0.0435,
        "meta_ra_of_asc_node": 188.915,
        "meta_arg_of_pericenter": 182.2118,
        "meta_mean_anomaly": 117.1483,
        "meta_ephemeris_type": 0,
        "meta_classification_type": "U",
        "meta_norad_cat_id": 40425,
        "meta_element_set_no": 999,
        "meta_rev_at_epoch": 3964,
        "meta_bstar": 0,
        "meta_mean_motion_dot": -4e-08,
        "meta_mean_motion_ddot": 0,
        "tle_line1": "1 40425U 15010B   25358.41664749 -.00000004  00000+0  00000+0 0  9999",
        "tle_line2": "2 40425   0.0435 188.9150 0000143 182.2118 117.1483  1.00271259 39646"
      },
      "geometry": {
        "type": "Point",
        "coordinates": [
          -127.14928899284581,
          0.02056879722338153
        ]
      }
    },
    {
      "type": "Feature",
      "properties": {
        "norad_id": 40875,
        "name": "EUTELSAT 8 WEST B",
        "group": "eutelsat",
        "lat": -0.0422375665179285,
        "lon": -20.196003800621185,
        "alt_km": 35778.65856861943,
        "timestamp": "2025-12-25T16:53:14.325622+00:00",
        "meta_object_name": "EUTELSAT 8 WEST B",
        "meta_object_id": "2015-039B",
        "meta_epoch": "2025-12-25T06:10:40.433952",
        "meta_mean_motion": 1.00271322,
        "meta_eccentricity": 0.000422,
        "meta_inclination": 0.0645,
        "meta_ra_of_asc_node": 9.1951,
        "meta_arg_of_pericenter": 265.5835,
        "meta_mean_anomaly": 263.9078,
        "meta_ephemeris_type": 0,
        "meta_classification_type": "U",
        "meta_norad_cat_id": 40875,
        "meta_element_set_no": 999,
        "meta_rev_at_epoch": 3791,
        "meta_bstar": 0,
        "meta_mean_motion_dot": -4.4e-07,
        "meta_mean_motion_ddot": 0,
        "tle_line1": "1 40875U 15039B   25359.25741243 -.00000044  00000+0  00000+0 0  9991",
        "tle_line2": "2 40875   0.0645   9.1951 0004220 265.5835 263.9078  1.00271322 37911"
      },
      "geometry": {
        "type": "Point",
        "coordinates": [
          -20.196003800621185,
          -0.0422375665179285
        ]
      }
    },
    {
      "type": "Feature",
      "properties": {
        "norad_id": 41310,
        "name": "EUTELSAT 9B",
        "group": "eutelsat",
        "lat": -0.02379460119265374,
        "lon": -3.1633279887535894,
        "alt_km": 35783.9577650111,
        "timestamp": "2025-12-25T16:53:14.325634+00:00",
        "meta_object_name": "EUTELSAT 9B",
        "meta_object_id": "2016-005A",
        "meta_epoch": "2025-12-24T06:17:44.244960",
        "meta_mean_motion": 1.00272813,
        "meta_eccentricity": 0.00045278,
        "meta_inclination": 0.023,
        "meta_ra_of_asc_node": 38.5865,
        "meta_arg_of_pericenter": 233.3148,
        "meta_mean_anomaly": 284.5874,
        "meta_ephemeris_type": 0,
        "meta_classification_type": "U",
        "meta_norad_cat_id": 41310,
        "meta_element_set_no": 999,
        "meta_rev_at_epoch": 3636,
        "meta_bstar": 0,
        "meta_mean_motion_dot": 8.3e-07,
        "meta_mean_motion_ddot": 0,
        "tle_line1": "1 41310U 16005A   25358.26231765  .00000083  00000+0  00000+0 0  9995",
        "tle_line2": "2 41310   0.0230  38.5865 0004527 233.3148 284.5874  1.00272813 36363"
      },
      "geometry": {
        "type": "Point",
        "coordinates": [
          -3.1633279887535894,
          -0.02379460119265374
        ]
      }
    },
    {
      "type": "Feature",
      "properties": {
        "norad_id": 41382,
        "name": "EUTELSAT 65 WEST A",
        "group": "eutelsat",
        "lat": -0.06092867279761748,
        "lon": -77.41449435942813,
        "alt_km": 35776.50684417198,
        "timestamp": "2025-12-25T16:53:14.325646+00:00",
        "meta_object_name": "EUTELSAT 65 WEST A",
        "meta_object_id": "2016-014A",
        "meta_epoch": "2025-12-25T00:39:29.297088",
        "meta_mean_motion": 1.00271925,
        "meta_eccentricity": 0.00022825,
        "meta_inclination": 0.0484,
        "meta_ra_of_asc_node": 343.8685,
        "meta_arg_of_pericenter": 293.2062,
        "meta_mean_anomaly": 121.4109,
        "meta_ephemeris_type": 0,
        "meta_classification_type": "U",
        "meta_norad_cat_id": 41382,
        "meta_element_set_no": 999,
        "meta_rev_at_epoch": 3578,
        "meta_bstar": 0,
        "meta_mean_motion_dot": -2.55e-06,
        "meta_mean_motion_ddot": 0,
        "tle_line1": "1 41382U 16014A   25359.02742242 -.00000255  00000+0  00000+0 0  9998",
        "tle_line2": "2 41382   0.0484 343.8685 0002282 293.2062 121.4109  1.00271925 35789"
      },
      "geometry": {
        "type": "Point",
        "coordinates": [
          -77.41449435942813,
          -0.06092867279761748
        ]
      }
    },
    {
      "type": "Feature",
      "properties": {
        "norad_id": 41589,
        "name": "EUTELSAT 117 WEST B",
        "group": "eutelsat",
        "lat": 0.003902051020583013,
        "lon": -129.2285860674642,
        "alt_km": 35783.08508854219,
        "timestamp": "2025-12-25T16:53:14.325658+00:00",
        "meta_object_name": "EUTELSAT 117 WEST B",
        "meta_object_id": "2016-038B",
        "meta_epoch": "2025-12-24T09:59:01.014144",
        "meta_mean_motion": 1.00277873,
        "meta_eccentricity": 6.384e-05,
        "meta_inclination": 0.0094,
        "meta_ra_of_asc_node": 154.0765,
        "meta_arg_of_pericenter": 139.5473,
        "meta_mean_anomaly": 192.3072,
        "meta_ephemeris_type": 0,
        "meta_classification_type": "U",
        "meta_norad_cat_id": 41589,
        "meta_element_set_no": 999,
        "meta_rev_at_epoch": 3491,
        "meta_bstar": 0,
        "meta_mean_motion_dot": 9e-08,
        "meta_mean_motion_ddot": 0,
        "tle_line1": "1 41589U 16038B   25358.41598396  .00000009  00000+0  00000+0 0  9990",
        "tle_line2": "2 41589   0.0094 154.0765 0000638 139.5473 192.3072  1.00277873 34915"
      },
      "geometry": {
        "type": "Point",
        "coordinates": [
          -129.2285860674642,
          0.003902051020583013
        ]
      }
    },
    {
      "type": "Feature",
      "properties": {
        "norad_id": 42741,
        "name": "EUTELSAT 172B",
        "group": "eutelsat",
        "lat": 0.022220904208414494,
        "lon": 159.7603819673971,
        "alt_km": 35786.01176207494,
        "timestamp": "2025-12-25T16:53:14.325670+00:00",
        "meta_object_name": "EUTELSAT 172B",
        "meta_object_id": "2017-029B",
        "meta_epoch": "2025-12-24T22:28:24.707712",
        "meta_mean_motion": 1.00270189,
        "meta_eccentricity": 1.296e-05,
        "meta_inclination": 0.0321,
        "meta_ra_of_asc_node": 134.3587,
        "meta_arg_of_pericenter": 357.8756,
        "meta_mean_anomaly": 110.5732,
        "meta_ephemeris_type": 0,
        "meta_classification_type": "U",
        "meta_norad_cat_id": 42741,
        "meta_element_set_no": 999,
        "meta_rev_at_epoch": 3198,
        "meta_bstar": 0,
        "meta_mean_motion_dot": 1.5e-07,
        "meta_mean_motion_ddot": 0,
        "tle_line1": "1 42741U 17029B   25358.93639708  .00000015  00000+0  00000+0 0  9999",
        "tle_line2": "2 42741   0.0321 134.3587 0000129 357.8756 110.5732  1.00270189 31988"
      },
      "geometry": {
        "type": "Point",
        "coordinates": [
          159.7603819673971,
          0.022220904208414494
        ]
      }
    }
  ]
}